TIANMU-1 07             
1 57399U 23101A   26065.57454230  .00008352  00000+0  29795-3 0  9991
2 57399  97.2728 118.5929 0004609 142.4105 217.7458 15.29118809145964
STARLINK-31524          
1 59506U 24071Y   26068.42845185 -.00001710  00000+0 -52637-4 0  9995
2 59506  43.0057 334.2763 0001266 272.5503  87.5204 15.27565301108249
